OBJECT_NAME,OBJECT_ID,EPOCH,MEAN_MOTION,ECCENTRICITY,INCLINATION,RA_OF_ASC_NODE,ARG_OF_PERICENTER,MEAN_ANOMALY,EPHEMERIS_TYPE,CLASSIFICATION_TYPE,NORAD_CAT_ID,ELEMENT_SET_NO,REV_AT_EPOCH,BSTAR,MEAN_MOTION_DOT,MEAN_MOTION_DDOT
DONGPO 02,2022-098J,2026-06-26T04:43:37.495200,15.76457933,.00033382,97.5520,309.1789,249.2542,110.8366,0,U,53452,999,21621,.78926324E-3,.126152E-2,0
DONGPO 01,2022-098K,2026-06-26T07:51:50.374368,15.74103784,.00023673,97.5587,309.8231,223.4219,136.6859,0,U,53453,999,21619,.7334468E-3,.105589E-2,0
STARLINK-4400,2022-099D,2026-06-26T06:47:48.299424,15.05659778,.00017007,97.3103,295.8567,131.2973,228.8401,0,U,53468,999,21231,-.28797663E-4,-.472E-5,0
STARLINK-4621,2022-105AE,2026-06-26T05:16:05.918016,15.05650861,.00018472,97.3118,55.8091,74.0174,286.1257,0,U,53676,999,20956,-.5729444E-5,-.139E-5,0
SHERPA-LTC2,2022-107BG,2026-06-26T07:09:49.491072,14.69785671,.03931031,53.2339,181.7571,251.6264,104.1592,0,U,53754,999,20388,.21119466E-3,.3995E-4,0
CENTISPACE-1 S3,2022-108A,2026-06-26T04:01:56.156448,14.61263020,.00099451,53.5339,18.1227,18.9904,341.1440,0,U,53757,999,20284,.12815485E-3,.448E-5,0
CENTISPACE-1 S4,2022-108B,2026-06-26T06:50:09.910752,14.61946711,.00091105,53.5315,15.1143,8.1674,351.9448,0,U,53758,999,20289,.15386906E-3,.586E-5,0
BLUEWALKER-3,2022-111AL,2026-06-26T05:03:09.779904,15.38382912,.00055361,53.2300,351.6065,189.4269,170.6633,0,U,53807,999,21159,.20738108E-3,.758E-4,0
YUNHAI-1 03,2022-115A,2026-06-26T06:23:27.721248,14.32724254,.00053623,98.5533,175.2981,33.4427,326.7095,0,U,53877,999,19681,.12628635E-3,.3E-5,0
CENTISPACE-1 S5,2022-126A,2026-06-26T07:22:24.883680,14.63025549,.00147156,54.9972,176.4638,89.3037,270.9643,0,U,54020,999,19837,.15613113E-3,.617E-5,0
CENTISPACE-1 S6,2022-126B,2026-06-26T07:19:06.536928,14.62295489,.00165434,54.9975,178.3807,89.7411,270.5478,0,U,54021,999,19833,.61225368E-4,.122E-5,0
OTB-3-GAZELLE,2022-127A,2026-06-26T05:09:17.417952,14.42677582,.00135982,98.3947,168.7818,156.3012,203.8807,0,U,54023,999,19566,.60647099E-4,.159E-5,0
ASO-S,2022-129A,2026-06-26T06:44:17.678688,14.52065838,.00156294,98.2747,182.2309,67.1509,293.1335,0,U,54029,999,19674,.66200221E-4,.224E-5,0
HJ-2E,2022-132A,2026-06-26T06:57:19.528704,15.22442562,.00193289,97.3795,181.5022,342.8270,17.2310,0,U,54035,999,20580,.39735021E-3,.9171E-4,0
COSMOS 2561,2022-137A,2026-06-26T04:33:20.484288,15.51917209,.0009435,96.9181,235.8541,4.0368,356.0960,0,U,54109,999,20774,.24519E-3,.1465E-3,0
GONETS-M 23,2022-139A,2026-06-26T06:40:56.199936,12.42891240,.00212661,82.5077,342.6435,199.3296,160.6979,0,U,54150,999,16677,.23713059E-3,.43E-6,0
GONETS-M 24,2022-139B,2026-06-26T06:02:10.430304,12.42891901,.00163577,82.4994,341.7139,209.3553,150.6609,0,U,54151,999,16677,.2774337E-3,.48E-6,0
GONETS-M 25,2022-139C,2026-06-26T05:42:35.453376,12.42890339,.002026,82.5060,342.4136,208.3614,151.6364,0,U,54152,999,16677,.2024116E-3,.38E-6,0
SKIF-D,2022-139D,2026-06-25T06:01:44.963040,5.00426899,.0007399,89.9499,96.6656,195.8282,164.1993,0,U,54153,999,6451,0,-.17E-6,0
MATS,2022-147A,2026-06-26T06:55:11.983296,15.05405137,.00130073,97.6819,178.8451,162.7061,197.4611,0,U,54227,999,19913,.30664144E-3,.4344E-4,0
JILIN-1 GAOFEN 03D54,2022-155D,2026-06-26T04:56:55.012128,16.06824394,.00086843,97.6181,331.5910,262.2377,97.7918,0,U,54254,999,20174,.89801124E-3,.68225E-2,.2383456E-3
EOS-6 (OCEANSAT-3),2022-158A,2026-06-26T06:58:05.806272,14.47005420,.00007412,98.3545,275.3639,45.3659,314.7593,0,U,54361,999,18915,.85032211E-4,.266E-5,0
DONGPO 09,2022-167D,2026-06-26T06:25:04.038240,15.36528268,.00036191,97.6899,348.6810,95.6762,264.4894,0,U,54685,999,19684,.3645257E-3,.12918E-3,0
DONGPO 08,2022-167E,2026-06-26T06:19:56.919936,15.33820299,.00091961,97.6863,345.8121,131.4298,228.7735,0,U,54686,999,19671,.36098607E-3,.11744E-3,0
2022-167F,2022-167F,2026-06-26T07:23:08.729952,15.97392836,.00026248,97.6049,6.3894,239.1076,120.9942,0,U,54687,999,19828,.7148143E-3,.312634E-2,.41678739E-4
DONGPO 10,2022-167H,2026-06-26T06:22:36.803136,15.34631575,.00062358,97.6944,347.7870,84.7720,275.4234,0,U,54689,999,19675,.35865189E-3,.11963E-3,0
JILIN-1 GAOFEN 03D48,2022-167P,2026-06-26T06:12:45.451296,15.35406832,.00075689,97.6879,347.1609,88.4123,271.7986,0,U,54695,999,19678,.35783396E-3,.12239E-3,0
STAR VIBE,2023-001A,2026-06-26T06:01:37.180992,15.42856050,.00070308,97.3173,241.7522,87.4992,272.7060,0,U,55009,999,19362,.37632927E-3,.16447E-3,0
BRO-8,2023-001C,2026-06-26T06:49:10.369056,15.49598631,.00066135,97.3214,242.6017,99.0680,261.1320,0,U,55011,999,19361,.64346838E-3,.35599E-3,0
CONNECTA T1.2,2023-001D,2026-06-25T16:29:20.660352,15.51349873,.00059984,97.3265,247.5316,77.9485,282.2439,0,U,55012,999,19386,.85420983E-3,.50393E-3,0
