DONGPO 02               
1 53452U 22098J   26177.19696175  .00126152  00000+0  78926-3 0  9998
2 53452  97.5520 309.1789 0003338 249.2542 110.8366 15.76457933216218
DONGPO 01               
1 53453U 22098K   26177.32766637  .00105589  00000+0  73345-3 0  9996
2 53453  97.5587 309.8231 0002367 223.4219 136.6859 15.74103784216197
STARLINK-4400           
1 53468U 22099D   26177.28319791 -.00000472  00000+0 -28798-4 0  9993
2 53468  97.3103 295.8567 0001700 131.2973 228.8401 15.05659778212314
STARLINK-4621           
1 53676U 22105AE  26177.21951294 -.00000139  00000+0 -57294-5 0  9999
2 53676  97.3118  55.8091 0001847  74.0174 286.1257 15.05650861209569
SHERPA-LTC2             
1 53754U 22107BG  26177.29848948  .00003995  00000+0  21119-3 0  9993
2 53754  53.2339 181.7571 0393103 251.6264 104.1592 14.69785671203883
CENTISPACE-1 S3         
1 53757U 22108A   26177.16801107  .00000448  00000+0  12815-3 0  9992
2 53757  53.5339  18.1227 0009945  18.9904 341.1440 14.61263020202844
CENTISPACE-1 S4         
1 53758U 22108B   26177.28483693  .00000586  00000+0  15387-3 0  9992
2 53758  53.5315  15.1143 0009110   8.1674 351.9448 14.61946711202899
BLUEWALKER-3            
1 53807U 22111AL  26177.21052986  .00007580  00000+0  20738-3 0  9998
2 53807  53.2300 351.6065 0005536 189.4269 170.6633 15.38382912211598
YUNHAI-1 03             
1 53877U 22115A   26177.26629307  .00000300  00000+0  12629-3 0  9994
2 53877  98.5533 175.2981 0005362  33.4427 326.7095 14.32724254196818
CENTISPACE-1 S5         
1 54020U 22126A   26177.30723245  .00000617  00000+0  15613-3 0  9995
2 54020  54.9972 176.4638 0014715  89.3037 270.9643 14.63025549198370
CENTISPACE-1 S6         
1 54021U 22126B   26177.30493677  .00000122  00000+0  61225-4 0  9991
2 54021  54.9975 178.3807 0016543  89.7411 270.5478 14.62295489198333
OTB-3-GAZELLE           
1 54023U 22127A   26177.21478493  .00000159  00000+0  60647-4 0  9990
2 54023  98.3947 168.7818 0013598 156.3012 203.8807 14.42677582195660
ASO-S                   
1 54029U 22129A   26177.28076017  .00000224  00000+0  66200-4 0  9995
2 54029  98.2747 182.2309 0015629  67.1509 293.1335 14.52065838196740
HJ-2E                   
1 54035U 22132A   26177.28980936  .00009171  00000+0  39735-3 0  9992
2 54035  97.3795 181.5022 0019328 342.8270  17.2310 15.22442562205809
COSMOS 2561             
1 54109U 22137A   26177.18982042  .00014650  00000+0  24519-3 0  9990
2 54109  96.9181 235.8541 0009435   4.0368 356.0960 15.51917209207744
GONETS-M 23             
1 54150U 22139A   26177.27842824  .00000043  00000+0  23713-3 0  9997
2 54150  82.5077 342.6435 0021266 199.3296 160.6979 12.42891240166777
GONETS-M 24             
1 54151U 22139B   26177.25150961  .00000048  00000+0  27743-3 0  9992
2 54151  82.4994 341.7139 0016357 209.3553 150.6609 12.42891901166772
GONETS-M 25             
1 54152U 22139C   26177.23791034  .00000038  00000+0  20241-3 0  9998
2 54152  82.5060 342.4136 0020260 208.3614 151.6364 12.42890339166771
SKIF-D                  
1 54153U 22139D   26176.25121485 -.00000017  00000+0  00000+0 0  9992
2 54153  89.9499  96.6656 0007399 195.8282 164.1993  5.00426899 64511
MATS                    
1 54227U 22147A   26177.28833314  .00004344  00000+0  30664-3 0  9997
2 54227  97.6819 178.8451 0013007 162.7061 197.4611 15.05405137199133
JILIN-1 GAOFEN 03D54    
1 54254U 22155D   26177.20619227  .00682250  23835-3  89801-3 0  9993
2 54254  97.6181 331.5910 0008684 262.2377  97.7918 16.06824394201749
EOS-6 (OCEANSAT-3)      
1 54361U 22158A   26177.29034498  .00000266  00000+0  85032-4 0  9994
2 54361  98.3545 275.3639 0000741  45.3659 314.7593 14.47005420189157
DONGPO 09               
1 54685U 22167D   26177.26740785  .00012918  00000+0  36453-3 0  9992
2 54685  97.6899 348.6810 0003619  95.6762 264.4894 15.36528268196843
DONGPO 08               
1 54686U 22167E   26177.26385324  .00011744  00000+0  36099-3 0  9999
2 54686  97.6863 345.8121 0009196 131.4298 228.7735 15.33820299196717
2022-167F               
1 54687U 22167F   26177.30773993  .00312634  41679-4  71481-3 0  9996
2 54687  97.6049   6.3894 0002624 239.1076 120.9942 15.97392836198287
DONGPO 10               
1 54689U 22167H   26177.26570374  .00011963  00000+0  35865-3 0  9996
2 54689  97.6944 347.7870 0006235  84.7720 275.4234 15.34631575196758
JILIN-1 GAOFEN 03D48    
1 54695U 22167P   26177.25885939  .00012239  00000+0  35783-3 0  9994
2 54695  97.6879 347.1609 0007568  88.4123 271.7986 15.35406832196787
STAR VIBE               
1 55009U 23001A   26177.25112478  .00016447  00000+0  37633-3 0  9994
2 55009  97.3173 241.7522 0007030  87.4992 272.7060 15.42856050193624
BRO-8                   
1 55011U 23001C   26177.28414779  .00035599  00000+0  64347-3 0  9990
2 55011  97.3214 242.6017 0006613  99.0680 261.1320 15.49598631193616
CONNECTA T1.2           
1 55012U 23001D   26176.68704468  .00050393  00000+0  85421-3 0  9996
2 55012  97.3265 247.5316 0005998  77.9485 282.2439 15.51349873193869
